{
  "norad_id": 66197,
  "name": "STARLINK-35518",
  "history": [
    {
      "epoch": "2026-03-28T13:39:51.465024Z",
      "apogee_km": 475.980172237998,
      "perigee_km": 474.4532450317147,
      "latitude_deg": 4.7793321201027555e-05,
      "longitude_deg": 126.65568952365466,
      "height_km": 475.98332021554273,
      "semi_major_axis_km": 6853.353708634856,
      "eccentricity": 0.0001114,
      "inclination_deg": 53.1579,
      "raan_deg": 157.608,
      "arg_perigee_deg": 80.0843,
      "mean_anomaly_deg": 280.0284,
      "mean_motion_rev_day": 15.30199451
    }
  ]
}